SCD 1                   
1 22490U 93009B   21341.39933014  .00000261  00000+0  21792-4 0  9994
2 22490  24.9709 318.9186 0042699 308.2257 183.0471 14.44632048521753
TECHSAT 1B (GO-32)      
1 25397U 98043D   21341.43128708  .00000005  00000+0  21972-4 0  9993
2 25397  98.7933 286.6656 0000760   0.6353 359.4826 14.23723727216101
SCD 2                   
1 25504U 98060A   21341.60980024  .00000229  00000+0  13620-4 0  9997
2 25504  24.9940 171.0794 0017075 321.3570  89.4557 14.44147634221085
LANDSAT 7               
1 25682U 99020A   21341.41000600  .00000109  00000+0  33701-4 0  9992
2 25682  98.0097  31.9373 0001403  66.6775 293.4578 14.57212554204582
DLR-TUBSAT              
1 25757U 99029B   21341.56067382  .00000013  00000+0  14752-4 0  9999
2 25757  98.4683 277.4763 0014114 349.0688  11.0198 14.51459023193446
TERRA                   
1 25994U 99068A   21341.55849065  .00000108  00000+0  33947-4 0  9992
2 25994  98.1604  52.6619 0001291 102.6103  17.9722 14.57140764168556
MAROC-TUBSAT            
1 27004U 01056D   21341.41699698 -.00000031  00000+0  15812-4 0  9993
2 27004  99.5963 117.1157 0020588  68.3799   1.7752 13.70150266999846
AQUA                    
1 27424U 02022A   21341.59222959  .00000184  00000+0  51010-4 0  9992
2 27424  98.2279 280.5614 0001783  90.3481  82.5160 14.57089648 42244
IRS-P6 (RESOURCESAT-1)  
1 28051U 03046A   21341.46090453 -.00000896  00000+0 -29886-3 0  9991
2 28051  98.4303  52.4727 0057656 228.1336 131.4941 14.34198483943505
SHIYAN 1 (SY-1)         
1 28220U 04012A   21341.44812921  .00001184  00000+0  98146-4 0  9998
2 28220  97.9376 323.6664 0015406 258.1172 101.8324 15.00793072961266
AURA                    
1 28376U 04026A   21341.56452320  .00000187  00000+0  51612-4 0  9990
2 28376  98.2151 282.5978 0001332  81.0108 279.1241 14.57104750925288
IRS-P5 (CARTOSAT-1)     
1 28649U 05017A   21341.45372367  .00000172  00000+0  26933-4 0  9996
2 28649  97.7477  42.7903 0002728 107.5588 252.5924 14.83867891898267
SINAH 1                 
1 28893U 05043D   21341.57619842  .00000052  00000+0  19706-4 0  9998
2 28893  98.0906 104.1037 0016273  57.3695 302.9075 14.61603540858922
EROS B                  
1 29079U 06014A   21341.61309236  .00005054  00000+0  20759-3 0  9998
2 29079  97.4231  99.9995 0006365 219.1843 197.3759 15.24633646867162
RESURS-DK 1             
1 29228U 06021A   21341.48024009  .00000279  00000+0  28141-4 0  9997
2 29228  69.9358 258.0763 0005773 322.5555  37.5203 15.02824032853536
ARIRANG-2 (KOMPSAT-2)   
1 29268U 06031A   21341.48804788  .00000182  00000+0  45120-4 0  9991
2 29268  97.9129 213.7980 0015269 255.8887 104.0626 14.62157397819846
LAPAN-TUBSAT            
1 29709U 07001A   21341.45286763  .00000096  00000+0  18718-4 0  9990
2 29709  97.9385 300.2360 0013205 154.7151 205.4708 14.82334062806068
CARTOSAT-2 (IRS-P7)     
1 29710U 07001B   21341.34294509  .00003890  00000+0  11583-3 0  9994
2 29710  97.8689  71.7954 0165189   8.2266 352.1617 15.22969684806949
HAIYANG-1B              
1 31113U 07010A   21341.31308870 -.00000007  00000+0  13343-4 0  9993
2 31113  98.3397   9.5628 0014814  64.3131 295.9581 14.30284913764300
COSMO-SKYMED 1          
1 31598U 07023A   21341.46941749  .00000066  00000+0  14882-4 0  9991
2 31598  97.8823 162.9284 0001379  85.2838 274.8562 14.82160348784528
TERRASAR-X              
1 31698U 07026A   21339.81961806  .00000705  00000+0  36767-4 0  9993
2 31698  97.4451 345.1897 0001491  93.7019 132.0496 15.19145362802721
WORLDVIEW-1 (WV-1)      
1 32060U 07041A   21341.28918968  .00001711  00000+0  72113-4 0  9992
2 32060  97.3910  98.3893 0003668  65.6390 294.5230 15.24672413791113
YAOGAN 3                
1 32289U 07055A   21341.48256947  .00000045  00000+0  12588-4 0  9993
2 32289  97.9625 359.7947 0001830  85.5813 274.5616 14.81145747760624
COSMO-SKYMED 2          
1 32376U 07059A   21341.50317426  .00000052  00000+0  13056-4 0  9996
2 32376  97.8814 162.9618 0001301  92.2474 267.8889 14.82159418757275
RADARSAT-2              
1 32382U 07061A   21341.49645573 -.00000001  00000+0  16622-4 0  9998
2 32382  98.5761 346.2271 0001201  93.9299  59.7656 14.29984412729860
CARTOSAT-2A             
1 32783U 08021A   21341.50671156  .00000032  00000+0  11563-4 0  9990
2 32783  97.9853  38.4470 0013972  70.1174 290.1536 14.78656231734658
HUANJING 1A (HJ-1A)     
1 33320U 08041A   21341.59451965  .00000117  00000+0  23151-4 0  9993
2 33320  97.7033  18.4104 0022344 133.0203 227.2886 14.77702496714056
HUANJING 1B (HJ-1B)     
1 33321U 08041B   21341.51763600  .00000373  00000+0  58835-4 0  9999
2 33321  97.7224  21.5108 0035472 151.6628 208.6526 14.77478547714041
GEOEYE 1                
1 33331U 08042A   21341.50217833  .00000172  00000+0  41473-4 0  9999
2 33331  98.1344  54.0600 0009574 152.1493 208.0228 14.64381779708275
THEOS                   
1 33396U 08049A   21341.50428281  .00000168  00000+0  10000-3 0  9994
2 33396  98.7752  46.1509 0001304  89.2214  25.0484 14.20003967683421
COSMO-SKYMED 3          
1 33412U 08054A   21341.48636000  .00000420  00000+0  59252-4 0  9990
2 33412  97.8814 162.9452 0001471  93.5086 266.6308 14.82157305709738
YAOGAN 4                
1 33446U 08061A   21341.41996408  .00000154  00000+0  28732-4 0  9992
2 33446  97.7969 282.6631 0017226  40.0814 320.1665 14.77180883701246
GOSAT (IBUKI)           
1 33492U 09002A   21341.34542630  .00000168  00000+0  38124-4 0  9996
2 33492  98.1026  91.0611 0001348 106.7529 253.3824 14.67530450689042
YAOGAN 6                
1 34839U 09021A   21341.53636333  .00001325  00000+0  50649-4 0  9990
2 34839  97.0634 326.2556 0025220 262.3419  97.4957 15.27998694701914
DEIMOS-1                
1 35681U 09041A   21341.49847590  .00000063  00000+0  17446-4 0  9998
2 35681  97.7333 197.1722 0002902 108.1346 252.0189 14.71937138663536
DUBAISAT-1              
1 35682U 09041B   21341.43135235  .00000160  00000+0  35125-4 0  9991
2 35682  97.7758 138.5784 0011016 332.3262  27.7358 14.68959700662099
OCEANSAT-2              
1 35931U 09051A   21341.53015455 -.00015079  00000+0 -39179-2 0  9999
2 35931  98.2943  75.0929 0003517 120.7770 239.3768 14.49691318646448
WORLDVIEW-2 (WV-2)      
1 35946U 09055A   21341.46245739  .00000047  00000+0  30375-4 0  9999
2 35946  98.5097  53.8315 0001391 154.7377 205.3884 14.37671860638325
SMOS                    
1 36036U 09059A   21341.49948478  .00000106  00000+0  47566-4 0  9993
2 36036  98.4402 166.7936 0000973  95.6250 264.5049 14.39776975635643
YAOGAN 7                
1 36110U 09069A   21341.22760308 -.00010790  00000+0 -15917-2 0  9997
2 36110  98.2185 193.1837 0024090 303.0801  56.8455 14.74989799645799
TANDEM-X                
1 36605U 10030A   21341.51248260 -.00000396  00000+0 -15688-4 0  9994
2 36605  97.4442 346.8589 0001844  90.8260  27.2035 15.19147489635728
CARTOSAT-2B             
1 36795U 10035A   21341.61226586  .00000204  00000+0  34965-4 0  9992
2 36795  97.9802  38.7577 0014700 139.5038 220.7260 14.78669263615716
YAOGAN 10               
1 36834U 10038A   21341.54769576  .00000165  00000+0  28043-4 0  9998
2 36834  97.9795 348.2614 0001634  77.6819 282.4574 14.81103713612372
COSMO-SKYMED 4          
1 37216U 10060A   21341.44836812  .00000097  00000+0  18730-4 0  9991
2 37216  97.8835 162.9069 0001409  81.2097 278.9278 14.82157269599815
RESOURCESAT-2           
1 37387U 11015A   21341.55345162  .00000029  00000+0  33221-4 0  9993
2 37387  98.6871  52.3464 0003166 262.8468  97.2354 14.21639964551898
HAIYANG-2A              
1 37781U 11043A   21341.49307826 -.00000039  00000+0  49470-5 0  9996
2 37781  99.3170 345.6993 0001122  48.7690 311.3558 13.78726772518938
RASAT                   
1 37791U 11044D   21341.57665534  .00000117  00000+0  30907-4 0  9990
2 37791  98.1027  72.5524 0022390  18.3219 341.8792 14.64878728551023
MEGHA-TROPIQUES         
1 37838U 11058A   21341.46563938  .00000270  00000+0  34585-5 0  9997
2 37838  19.9795   5.6746 0009871 339.9432  20.0584 14.09659992456656
SRMSAT                  
1 37841U 11058D   21341.36054402  .00000325  00000+0  33688-4 0  9994
2 37841  19.9734 336.0078 0011970  34.5307 356.5788 14.10714308524085
YAOGAN 13               
1 37941U 11072A   21341.47161396  .00002224  00000+0  10832-3 0  9999
2 37941  97.6097 284.5961 0002447  32.7782 105.0036 15.19438461555636
PLEIADES 1A             
1 38012U 11076F   21341.50193296  .00000046  00000+0  19784-4 0  9997
2 38012  98.1859  54.3456 0001070  89.9058 270.2262 14.58550851531091
ZIYUAN 1-02C (ZY 1-02C) 
1 38038U 11079A   21341.44898817  .00000094  00000+0  48342-4 0  9997
2 38038  98.6174  41.6815 0008264 111.4441 248.7631 14.35302481521943
ZIYUAN 3-1 (ZY 3-1)     
1 38046U 12001A   21341.50776594  .00001914  00000+0  88385-4 0  9999
2 38046  97.3656  51.9394 0003141  92.5851   3.0605 15.21390447550425
ARIRANG-3 (KOMPSAT-3)   
1 38338U 12025B   21341.23615426  .00000354  00000+0  80464-4 0  9992
2 38338  98.1633 278.5538 0009413 254.1971 105.7237 14.61717873509892
KANOPUS-V 1             
1 38707U 12039A   21341.55835382  .00001805  00000+0  86397-4 0  9990
2 38707  97.4666 260.2634 0001830  78.0107  94.7003 15.20246099520225
EXACTVIEW-1 (ADS-1B)    
1 38709U 12039C   21341.39569432  .00000011  00000+0  25323-4 0  9994
2 38709  99.0378  37.8609 0010112 248.2334 111.7768 14.24068229487401
SPOT 6                  
1 38755U 12047A   21341.44921664  .00000048  00000+0  20074-4 0  9997
2 38755  98.1828  46.7227 0001099  91.1297 269.0034 14.58556592492168
PLEIADES 1B             
1 39019U 12068A   21341.46755506  .00000056  00000+0  21769-4 0  9997
2 39019  98.1813  54.2865 0001198  93.3549 266.7792 14.58567853479940
GOKTURK 2               
1 39030U 12073A   21341.45451508  .00000124  00000+0  26857-4 0  9999
2 39030  97.8794 221.4431 0000966 152.8607 207.2648 14.72860623481098
LANDSAT 8               
1 39084U 13008A   21341.63069205  .00000103  00000+0  32863-4 0  9997
2 39084  98.2073  49.7857 0001287  86.2637 273.8708 14.57113260469065
